start=new Date('2022-06-12T00:00:00.000Z').valueOf();
sats=[{"CENTER_NAME":"EARTH","OBJECT_TYPE":"PAYLOAD","INCLINATION":"53.2165","MEAN_MOTION_DOT":"0.00000928","COUNTRY_CODE":"US","RCS_SIZE":"LARGE","RA_OF_ASC_NODE":"175.2246","GP_ID":"205928249","ARG_OF_PERICENTER":"45.8620","OBJECT_ID":"2022-001C","EPOCH":"2022-06-11T19:42:46.693728","PERIOD":"95.438","ECCENTRICITY":"0.00024580","TLE_LINE2":"2 50805  53.2165 175.2246 0002458  45.8620 314.2574 15.08831582 24196","MEAN_ANOMALY":"314.2574","NORAD_CAT_ID":"50805","TLE_LINE1":"1 50805U 22001C   22162.82137377  .00000928  00000-0  76430-4 0  9997","REF_FRAME":"TEME","ELEMENT_SET_NO":"999","TIME_SYSTEM":"UTC","EPHEMERIS_TYPE":"0","MEAN_ELEMENT_THEORY":"SGP4","MEAN_MOTION":"15.08831582","APOAPSIS":"541.472","DECAY_DATE":null,"MEAN_MOTION_DDOT":"0.0000000000000","SITE":"AFETR","LAUNCH_DATE":"2022-01-06","CLASSIFICATION_TYPE":"U","OBJECT_NAME":"STARLINK-3333","PERIAPSIS":"538.071","FILE":"3492149","BSTAR":"0.00007643000000","SEMIMAJOR_AXIS":"6917.906","REV_AT_EPOCH":"2419"},{"OBJECT_ID":"2022-001D","ARG_OF_PERICENTER":"45.8982","EPOCH":"2022-06-11T18:02:04.436736","PERIOD":"95.438","ECCENTRICITY":"0.00023530","TLE_LINE2":"2 50806  53.2151 175.5427 0002353  45.8982 314.2204 15.08836493 24186","NORAD_CAT_ID":"50806","MEAN_ANOMALY":"314.2204","TLE_LINE1":"1 50806U 22001D   22162.75144024  .00000196  00000-0  30404-4 0  9995","CENTER_NAME":"EARTH","OBJECT_TYPE":"PAYLOAD","COUNTRY_CODE":"US","INCLINATION":"53.2151","MEAN_MOTION_DOT":"0.00000196","RCS_SIZE":"LARGE","RA_OF_ASC_NODE":"175.5427","GP_ID":"205929500","BSTAR":"0.00003040400000","SEMIMAJOR_AXIS":"6917.891","REV_AT_EPOCH":"2418","REF_FRAME":"TEME","TIME_SYSTEM":"UTC","ELEMENT_SET_NO":"999","DECAY_DATE":null,"APOAPSIS":"541.384","MEAN_MOTION_DDOT":"0.0000000000000","MEAN_ELEMENT_THEORY":"SGP4","EPHEMERIS_TYPE":"0","MEAN_MOTION":"15.08836493","SITE":"AFETR","LAUNCH_DATE":"2022-01-06","OBJECT_NAME":"STARLINK-3335","CLASSIFICATION_TYPE":"U","FILE":"3492149","PERIAPSIS":"538.128"},{"GP_ID":"205929749","RA_OF_ASC_NODE":"175.6182","RCS_SIZE":"LARGE","MEAN_MOTION_DOT":"-0.00001067","INCLINATION":"53.2187","COUNTRY_CODE":"US","CENTER_NAME":"EARTH","OBJECT_TYPE":"PAYLOAD","TLE_LINE1":"1 50807U 22001E   22162.73672888 -.00001067  00000-0 -48964-4 0  9998","NORAD_CAT_ID":"50807","MEAN_ANOMALY":"315.3033","ECCENTRICITY":"0.00026720","TLE_LINE2":"2 50807  53.2187 175.6182 0002672  44.8174 315.3033 15.08829039 24181","PERIOD":"95.438","EPOCH":"2022-06-11T17:40:53.375232","OBJECT_ID":"2022-001E","ARG_OF_PERICENTER":"44.8174","FILE":"3492149","PERIAPSIS":"537.930","SITE":"AFETR","OBJECT_NAME":"STARLINK-3353","LAUNCH_DATE":"2022-01-06","CLASSIFICATION_TYPE":"U","MEAN_MOTION":"15.08829039","MEAN_ELEMENT_THEORY":"SGP4","EPHEMERIS_TYPE":"0","MEAN_MOTION_DDOT":"0.0000000000000","DECAY_DATE":null,"APOAPSIS":"541.627","TIME_SYSTEM":"UTC","ELEMENT_SET_NO":"999","REF_FRAME":"TEME","REV_AT_EPOCH":"2418","SEMIMAJOR_AXIS":"6917.914","BSTAR":"-0.00004896400000"},{"TLE_LINE1":"1 50808U 22001F   22162.74407199  .00000741  00000-0  64651-4 0  9998","PERIOD":"95.437","EPOCH":"2022-06-11T17:51:27.819936","ARG_OF_PERICENTER":"43.7488","OBJECT_ID":"2022-001F","NORAD_CAT_ID":"50808","MEAN_ANOMALY":"316.3723","TLE_LINE2":"2 50808  53.2156 175.5778 0002764  43.7488 316.3723 15.08842799 24181","ECCENTRICITY":"0.00027640","RCS_SIZE":"LARGE","GP_ID":"205928499","RA_OF_ASC_NODE":"175.5778","OBJECT_TYPE":"PAYLOAD","CENTER_NAME":"EARTH","MEAN_MOTION_DOT":"0.00000741","INCLINATION":"53.2156","COUNTRY_CODE":"US","SEMIMAJOR_AXIS":"6917.872","REV_AT_EPOCH":"2418","BSTAR":"0.00006465100000","MEAN_MOTION":"15.08842799","EPHEMERIS_TYPE":"0","MEAN_ELEMENT_THEORY":"SGP4","MEAN_MOTION_DDOT":"0.0000000000000","APOAPSIS":"541.649","DECAY_DATE":null,"PERIAPSIS":"537.825","FILE":"3492149","OBJECT_NAME":"STARLINK-3355","SITE":"AFETR","LAUNCH_DATE":"2022-01-06","CLASSIFICATION_TYPE":"U","REF_FRAME":"TEME","ELEMENT_SET_NO":"999","TIME_SYSTEM":"UTC"},{"MEAN_MOTION":"15.08826645","MEAN_ELEMENT_THEORY":"SGP4","EPHEMERIS_TYPE":"0","MEAN_MOTION_DDOT":"0.0000000000000","DECAY_DATE":null,"APOAPSIS":"541.418","PERIAPSIS":"538.154","FILE":"3492149","SITE":"AFETR","OBJECT_NAME":"STARLINK-3232","LAUNCH_DATE":"2022-01-06","CLASSIFICATION_TYPE":"U","REF_FRAME":"TEME","ELEMENT_SET_NO":"999","TIME_SYSTEM":"UTC","SEMIMAJOR_AXIS":"6917.921","REV_AT_EPOCH":"2418","BSTAR":"0.00007151300000","RCS_SIZE":"LARGE","GP_ID":"205928749","RA_OF_ASC_NODE":"175.5617","CENTER_NAME":"EARTH","OBJECT_TYPE":"PAYLOAD","MEAN_MOTION_DOT":"0.00000850","INCLINATION":"53.2159","COUNTRY_CODE":"US","TLE_LINE1":"1 50809U 22001G   22162.74777654  .00000850  00000-0  71513-4 0  9991","EPOCH":"2022-06-11T17:56:47.893056","PERIOD":"95.438","OBJECT_ID":"2022-001G","ARG_OF_PERICENTER":"40.5447","MEAN_ANOMALY":"319.5721","NORAD_CAT_ID":"50809","TLE_LINE2":"2 50809  53.2159 175.5617 0002359  40.5447 319.5721 15.08826645 24182","ECCENTRICITY":"0.00023590"},{"BSTAR":"-0.00004807100000","SEMIMAJOR_AXIS":"6917.914","REV_AT_EPOCH":"2418","REF_FRAME":"TEME","ELEMENT_SET_NO":"999","TIME_SYSTEM":"UTC","APOAPSIS":"541.445","DECAY_DATE":null,"MEAN_MOTION_DDOT":"0.0000000000000","EPHEMERIS_TYPE":"0","MEAN_ELEMENT_THEORY":"SGP4","MEAN_MOTION":"15.08829086","SITE":"AFETR","LAUNCH_DATE":"2022-01-06","OBJECT_NAME":"STARLINK-3348","CLASSIFICATION_TYPE":"U","PERIAPSIS":"538.112","FILE":"3492149","ARG_OF_PERICENTER":"39.9028","OBJECT_ID":"2022-001H","PERIOD":"95.438","EPOCH":"2022-06-11T17:46:11.166528","TLE_LINE2":"2 50810  53.2185 175.6033 0002409  39.9028 320.2141 15.08829086 24186","ECCENTRICITY":"0.00024090","MEAN_ANOMALY":"320.2141","NORAD_CAT_ID":"50810","TLE_LINE1":"1 50810U 22001H   22162.74040702 -.00001053  00000-0 -48071-4 0  9991","OBJECT_TYPE":"PAYLOAD","CENTER_NAME":"EARTH","COUNTRY_CODE":"US","MEAN_MOTION_DOT":"-0.00001053","INCLINATION":"53.2185","RCS_SIZE":"LARGE","RA_OF_ASC_NODE":"175.6033","GP_ID":"205929001"},{"REF_FRAME":"TEME","ELEMENT_SET_NO":"999","TIME_SYSTEM":"UTC","APOAPSIS":"541.684","DECAY_DATE":null,"MEAN_MOTION_DDOT":"0.0000000000000","EPHEMERIS_TYPE":"0","MEAN_ELEMENT_THEORY":"SGP4","MEAN_MOTION":"15.08833477","SITE":"AFETR","CLASSIFICATION_TYPE":"U","LAUNCH_DATE":"2022-01-06","OBJECT_NAME":"STARLINK-3347","PERIAPSIS":"537.847","FILE":"3492149","BSTAR":"-0.00007546200000","SEMIMAJOR_AXIS":"6917.900","REV_AT_EPOCH":"2418","CENTER_NAME":"EARTH","OBJECT_TYPE":"PAYLOAD","COUNTRY_CODE":"US","MEAN_MOTION_DOT":"-0.00001489","INCLINATION":"53.2197","RCS_SIZE":"LARGE","RA_OF_ASC_NODE":"175.6295","GP_ID":"205929250","OBJECT_ID":"2022-001J","ARG_OF_PERICENTER":"42.6585","PERIOD":"95.438","EPOCH":"2022-06-11T17:35:35.472480","TLE_LINE2":"2 50811  53.2197 175.6295 0002773  42.6585 317.4622 15.08833477 24184","ECCENTRICITY":"0.00027730","MEAN_ANOMALY":"317.4622","NORAD_CAT_ID":"50811","TLE_LINE1":"1 50811U 22001J   22162.73304945 -.00001489  00000-0 -75462-4 0  9990"},{"MEAN_ELEMENT_THEORY":"SGP4","EPHEMERIS_TYPE":"0","MEAN_MOTION":"15.08842755","APOAPSIS":"541.347","DECAY_DATE":null,"MEAN_MOTION_DDOT":"0.0000000000000","SITE":"AFETR","OBJECT_NAME":"STARLINK-3338","LAUNCH_DATE":"2022-01-06","CLASSIFICATION_TYPE":"U","FILE":"3492149","PERIAPSIS":"538.127","REF_FRAME":"TEME","TIME_SYSTEM":"UTC","ELEMENT_SET_NO":"999","SEMIMAJOR_AXIS":"6917.872","REV_AT_EPOCH":"2418","BSTAR":"0.00006492800000","RCS_SIZE":"LARGE","RA_OF_ASC_NODE":"175.4853","GP_ID":"205928000","OBJECT_TYPE":"PAYLOAD","CENTER_NAME":"EARTH","MEAN_MOTION_DOT":"0.00000745","INCLINATION":"53.2157","COUNTRY_CODE":"US","TLE_LINE1":"1 50812U 22001K   22162.76342650  .00000745  00000-0  64928-4 0  9996","OBJECT_ID":"2022-001K","ARG_OF_PERICENTER":"42.0923","EPOCH":"2022-06-11T18:19:20.049600","PERIOD":"95.437","ECCENTRICITY":"0.00023270","TLE_LINE2":"2 50812  53.2157 175.4853 0002327  42.0923 318.0248 15.08842755 24184","MEAN_ANOMALY":"318.0248","NORAD_CAT_ID":"50812"},{"BSTAR":"0.00007454000000","SEMIMAJOR_AXIS":"6917.907","REV_AT_EPOCH":"2418","REF_FRAME":"TEME","TIME_SYSTEM":"UTC","ELEMENT_SET_NO":"999","MEAN_MOTION_DDOT":"0.0000000000000","DECAY_DATE":null,"APOAPSIS":"541.724","MEAN_MOTION":"15.08831293","EPHEMERIS_TYPE":"0","MEAN_ELEMENT_THEORY":"SGP4","PERIAPSIS":"537.820","FILE":"3492149","LAUNCH_DATE":"2022-01-06","SITE":"AFETR","OBJECT_NAME":"STARLINK-3349","CLASSIFICATION_TYPE":"U","EPOCH":"2022-06-11T17:31:40.074816","PERIOD":"95.438","ARG_OF_PERICENTER":"37.3755","OBJECT_ID":"2022-001L","MEAN_ANOMALY":"322.7433","NORAD_CAT_ID":"50813","TLE_LINE2":"2 50813  53.2201 175.6414 0002822  37.3755 322.7433 15.08831293 24183","ECCENTRICITY":"0.00028220","TLE_LINE1":"1 50813U 22001L   22162.73032494  .00000898  00000-0  74540-4 0  9996","OBJECT_TYPE":"PAYLOAD","CENTER_NAME":"EARTH","COUNTRY_CODE":"US","INCLINATION":"53.2201","MEAN_MOTION_DOT":"0.00000898","RCS_SIZE":"LARGE","GP_ID":"205928250","RA_OF_ASC_NODE":"175.6414"},{"SEMIMAJOR_AXIS":"6917.916","REV_AT_EPOCH":"2405","BSTAR":"0.00006504800000","MEAN_MOTION_DDOT":"0.0000000000000","APOAPSIS":"541.089","DECAY_DATE":null,"MEAN_MOTION":"15.08828393","MEAN_ELEMENT_THEORY":"SGP4","EPHEMERIS_TYPE":"0","FILE":"3492149","PERIAPSIS":"538.473","LAUNCH_DATE":"2022-01-06","SITE":"AFETR","CLASSIFICATION_TYPE":"U","OBJECT_NAME":"STARLINK-3324","REF_FRAME":"TEME","TIME_SYSTEM":"UTC","ELEMENT_SET_NO":"999","TLE_LINE1":"1 50814U 22001M   22162.77629448  .00000747  00000-0  65048-4 0  9998","EPOCH":"2022-06-11T18:37:51.843072","PERIOD":"95.438","OBJECT_ID":"2022-001M","ARG_OF_PERICENTER":"44.9665","NORAD_CAT_ID":"50814","MEAN_ANOMALY":"315.1480","ECCENTRICITY":"0.00018910","TLE_LINE2":"2 50814  53.2175 185.4184 0001891  44.9665 315.1480 15.08828393 24057","RCS_SIZE":"LARGE","GP_ID":"205929501","RA_OF_ASC_NODE":"185.4184","OBJECT_TYPE":"PAYLOAD","CENTER_NAME":"EARTH","COUNTRY_CODE":"US","MEAN_MOTION_DOT":"0.00000747","INCLINATION":"53.2175"}];
